stk.v.4.3
BEGIN Ephemeris
NumberOfEphemerisPoints 2001
ScenarioEpoch           1 Jan 2000 12:0:0.0000
InterpolationOrder      5
DistanceUnit            Meters
CentralBody             Earth
CoordinateSystem        Fixed
EphemerisTimePosVel
82  648177.9539 6746895.5994 -199.3157 -7141.6093 685.0954 -0.19559
82.1  647463.7893 6746964.0711 -199.3352 -7141.6821 684.3382 -0.19557
82.2  646749.6174 6747032.4671 -199.3548 -7141.7547 683.5811 -0.19555
82.3  646035.4383 6747100.7873 -199.3743 -7141.8273 682.8239 -0.19553
82.4  645321.252 6747169.0318 -199.3939 -7141.8998 682.0668 -0.19551
82.5  644607.0584 6747237.2007 -199.4134 -7141.9722 681.3096 -0.19549
82.6  643892.8576 6747305.2938 -199.433 -7142.0445 680.5524 -0.19547
82.7  643178.6495 6747373.3112 -199.4525 -7142.1168 679.7952 -0.19545
82.8  642464.4342 6747441.2528 -199.4721 -7142.189 679.038 -0.19543
82.9  641750.2117 6747509.1188 -199.4916 -7142.2611 678.2808 -0.19541
83  641035.982 6747576.909 -199.5112 -7142.3331 677.5236 -0.19539
83.1  640321.7451 6747644.6235 -199.5307 -7142.405 676.7664 -0.19537
83.2  639607.501 6747712.2623 -199.5502 -7142.4768 676.0092 -0.19535
83.3  638893.2497 6747779.8253 -199.5698 -7142.5486 675.252 -0.19532
83.4  638178.9913 6747847.3127 -199.5893 -7142.6203 674.4947 -0.1953
83.5  637464.7257 6747914.7243 -199.6088 -7142.6919 673.7375 -0.19528
83.6  636750.4529 6747982.0602 -199.6284 -7142.7635 672.9802 -0.19526
83.7  636036.173 6748049.3203 -199.6479 -7142.8349 672.223 -0.19524
83.8  635321.8859 6748116.5047 -199.6674 -7142.9063 671.4657 -0.19522
83.9  634607.5917 6748183.6134 -199.6869 -7142.9776 670.7084 -0.1952
84  633893.2904 6748250.6464 -199.7064 -7143.0488 669.9511 -0.19518
84.1  633178.982 6748317.6037 -199.726 -7143.1199 669.1938 -0.19516
84.2  632464.6664 6748384.4852 -199.7455 -7143.191 668.4365 -0.19514
84.3  631750.3438 6748451.291 -199.765 -7143.2619 667.6792 -0.19512
84.4  631036.014 6748518.021 -199.7845 -7143.3328 666.9219 -0.1951
84.5  630321.6772 6748584.6754 -199.804 -7143.4036 666.1646 -0.19508
84.6  629607.3333 6748651.254 -199.8235 -7143.4744 665.4073 -0.19506
84.7  628892.9824 6748717.7568 -199.843 -7143.545 664.6499 -0.19504
84.8  628178.6243 6748784.1839 -199.8625 -7143.6156 663.8926 -0.19502
84.9  627464.2592 6748850.5353 -199.882 -7143.6861 663.1352 -0.19499
85  626749.8871 6748916.811 -199.9015 -7143.7565 662.3779 -0.19497
85.1  626035.508 6748983.0109 -199.921 -7143.8268 661.6205 -0.19495
85.2  625321.1218 6749049.1351 -199.9405 -7143.8971 660.8631 -0.19493
85.3  624606.7285 6749115.1835 -199.96 -7143.9672 660.1058 -0.19491
85.4  623892.3283 6749181.1562 -199.9795 -7144.0373 659.3484 -0.19489
85.5  623177.9211 6749247.0532 -199.999 -7144.1073 658.591 -0.19487
85.6  622463.5069 6749312.8744 -200.0185 -7144.1773 657.8336 -0.19485
85.7  621749.0856 6749378.6199 -200.038 -7144.2471 657.0762 -0.19483
85.8  621034.6574 6749444.2897 -200.0574 -7144.3169 656.3188 -0.19481
85.9  620320.2223 6749509.8837 -200.0769 -7144.3866 655.5613 -0.19479
86  619605.7801 6749575.4019 -200.0964 -7144.4562 654.8039 -0.19477
86.1  618891.331 6749640.8445 -200.1159 -7144.5257 654.0465 -0.19475
86.2  618176.875 6749706.2112 -200.1353 -7144.5951 653.289 -0.19472
86.3  617462.412 6749771.5023 -200.1548 -7144.6645 652.5316 -0.1947
86.4  616747.9421 6749836.7175 -200.1743 -7144.7338 651.7741 -0.19468
86.5  616033.4653 6749901.8571 -200.1938 -7144.803 651.0166 -0.19466
86.6  615318.9815 6749966.9209 -200.2132 -7144.8721 650.2592 -0.19464
86.7  614604.4908 6750031.9089 -200.2327 -7144.9412 649.5017 -0.19462
86.8  613889.9933 6750096.8212 -200.2521 -7145.0101 648.7442 -0.1946
86.9  613175.4888 6750161.6577 -200.2716 -7145.079 647.9867 -0.19458
87  612460.9775 6750226.4185 -200.2911 -7145.1478 647.2292 -0.19456
87.1  611746.4592 6750291.1036 -200.3105 -7145.2166 646.4717 -0.19454
87.2  611031.9342 6750355.7129 -200.33 -7145.2852 645.7142 -0.19452
87.3  610317.4022 6750420.2464 -200.3494 -7145.3538 644.9566 -0.1945
87.4  609602.8634 6750484.7042 -200.3689 -7145.4223 644.1991 -0.19447
87.5  608888.3178 6750549.0862 -200.3883 -7145.4907 643.4416 -0.19445
87.6  608173.7653 6750613.3925 -200.4078 -7145.559 642.684 -0.19443
87.7  607459.206 6750677.623 -200.4272 -7145.6272 641.9265 -0.19441
87.8  606744.6398 6750741.7778 -200.4466 -7145.6954 641.1689 -0.19439
87.9  606030.0669 6750805.8568 -200.4661 -7145.7635 640.4113 -0.19437
88  605315.4871 6750869.8601 -200.4855 -7145.8315 639.6538 -0.19435
88.1  604600.9006 6750933.7876 -200.5049 -7145.8994 638.8962 -0.19433
88.2  603886.3073 6750997.6393 -200.5244 -7145.9673 638.1386 -0.19431
88.3  603171.7071 6751061.4153 -200.5438 -7146.035 637.381 -0.19429
88.4  602457.1003 6751125.1155 -200.5632 -7146.1027 636.6234 -0.19427
88.5  601742.4866 6751188.74 -200.5827 -7146.1703 635.8658 -0.19424
88.6  601027.8662 6751252.2887 -200.6021 -7146.2378 635.1082 -0.19422
88.7  600313.239 6751315.7616 -200.6215 -7146.3053 634.3505 -0.1942
88.8  599598.6051 6751379.1588 -200.6409 -7146.3726 633.5929 -0.19418
88.9  598883.9645 6751442.4802 -200.6603 -7146.4399 632.8353 -0.19416
89  598169.3172 6751505.7258 -200.6798 -7146.5071 632.0776 -0.19414
89.1  597454.6631 6751568.8957 -200.6992 -7146.5743 631.32 -0.19412
89.2  596740.0023 6751631.9898 -200.7186 -7146.6413 630.5623 -0.1941
89.3  596025.3348 6751695.0082 -200.738 -7146.7083 629.8046 -0.19408
89.4  595310.6607 6751757.9507 -200.7574 -7146.7751 629.047 -0.19406
89.5  594595.9798 6751820.8175 -200.7768 -7146.8419 628.2893 -0.19403
89.6  593881.2923 6751883.6086 -200.7962 -7146.9087 627.5316 -0.19401
89.7  593166.5981 6751946.3239 -200.8156 -7146.9753 626.7739 -0.19399
89.8  592451.8972 6752008.9634 -200.835 -7147.0419 626.0162 -0.19397
89.9  591737.1897 6752071.5271 -200.8544 -7147.1083 625.2585 -0.19395
90  591022.4756 6752134.0151 -200.8738 -7147.1748 624.5008 -0.19393
90.1  590307.7548 6752196.4273 -200.8932 -7147.2411 623.743 -0.19391
90.2  589593.0273 6752258.7637 -200.9126 -7147.3073 622.9853 -0.19389
90.3  588878.2933 6752321.0243 -200.932 -7147.3735 622.2276 -0.19387
90.4  588163.5527 6752383.2092 -200.9513 -7147.4396 621.4698 -0.19385
90.5  587448.8054 6752445.3183 -200.9707 -7147.5056 620.7121 -0.19382
90.6  586734.0515 6752507.3516 -200.9901 -7147.5715 619.9543 -0.1938
90.7  586019.2911 6752569.3091 -201.0095 -7147.6373 619.1966 -0.19378
90.8  585304.5241 6752631.1909 -201.0289 -7147.7031 618.4388 -0.19376
90.9  584589.7505 6752692.9969 -201.0482 -7147.7688 617.681 -0.19374
91  583874.9703 6752754.7271 -201.0676 -7147.8344 616.9232 -0.19372
91.1  583160.1836 6752816.3815 -201.087 -7147.8999 616.1654 -0.1937
91.2  582445.3904 6752877.9602 -201.1064 -7147.9653 615.4076 -0.19368
91.3  581730.5906 6752939.4631 -201.1257 -7148.0307 614.6498 -0.19366
91.4  581015.7842 6753000.8902 -201.1451 -7148.096 613.892 -0.19363
91.5  580300.9714 6753062.2415 -201.1644 -7148.1612 613.1342 -0.19361
91.6  579586.152 6753123.517 -201.1838 -7148.2263 612.3764 -0.19359
91.7  578871.3261 6753184.7167 -201.2032 -7148.2913 611.6185 -0.19357
91.8  578156.4937 6753245.8407 -201.2225 -7148.3563 610.8607 -0.19355
91.9  577441.6549 6753306.8889 -201.2419 -7148.4211 610.1028 -0.19353
92  576726.8095 6753367.8613 -201.2612 -7148.4859 609.345 -0.19351
92.1  576011.9577 6753428.7579 -201.2806 -7148.5507 608.5871 -0.19349
92.2  575297.0994 6753489.5787 -201.2999 -7148.6153 607.8292 -0.19346
92.3  574582.2346 6753550.3237 -201.3193 -7148.6799 607.0714 -0.19344
92.4  573867.3634 6753610.993 -201.3386 -7148.7443 606.3135 -0.19342
92.5  573152.4858 6753671.5864 -201.358 -7148.8087 605.5556 -0.1934
92.6  572437.6017 6753732.1041 -201.3773 -7148.873 604.7977 -0.19338
92.7  571722.7112 6753792.546 -201.3966 -7148.9373 604.0398 -0.19336
92.8  571007.8142 6753852.912 -201.416 -7149.0014 603.2819 -0.19334
92.9  570292.9109 6753913.2023 -201.4353 -7149.0655 602.524 -0.19332
93  569578.0011 6753973.4168 -201.4546 -7149.1295 601.7661 -0.19329
93.1  568863.085 6754033.5555 -201.474 -7149.1934 601.0081 -0.19327
93.2  568148.1624 6754093.6185 -201.4933 -7149.2573 600.2502 -0.19325
93.3  567433.2335 6754153.6056 -201.5126 -7149.321 599.4922 -0.19323
93.4  566718.2982 6754213.5169 -201.5319 -7149.3847 598.7343 -0.19321
93.5  566003.3566 6754273.3524 -201.5512 -7149.4483 597.9763 -0.19319
93.6  565288.4086 6754333.1122 -201.5706 -7149.5118 597.2184 -0.19317
93.7  564573.4542 6754392.7961 -201.5899 -7149.5752 596.4604 -0.19315
93.8  563858.4935 6754452.4043 -201.6092 -7149.6386 595.7024 -0.19312
93.9  563143.5265 6754511.9366 -201.6285 -7149.7019 594.9444 -0.1931
94  562428.5532 6754571.3931 -201.6478 -7149.7651 594.1865 -0.19308
94.1  561713.5735 6754630.7739 -201.6671 -7149.8282 593.4285 -0.19306
94.2  560998.5875 6754690.0788 -201.6864 -7149.8912 592.6705 -0.19304
94.3  560283.5953 6754749.308 -201.7057 -7149.9542 591.9124 -0.19302
94.4  559568.5967 6754808.4613 -201.725 -7150.017 591.1544 -0.193
94.5  558853.5919 6754867.5389 -201.7443 -7150.0798 590.3964 -0.19297
94.6  558138.5808 6754926.5406 -201.7636 -7150.1425 589.6384 -0.19295
94.7  557423.5634 6754985.4665 -201.7829 -7150.2052 588.8803 -0.19293
94.8  556708.5397 6755044.3167 -201.8022 -7150.2677 588.1223 -0.19291
94.9  555993.5098 6755103.091 -201.8215 -7150.3302 587.3642 -0.19289
95  555278.4737 6755161.7895 -201.8408 -7150.3926 586.6062 -0.19287
95.1  554563.4313 6755220.4122 -201.8601 -7150.4549 585.8481 -0.19285
95.2  553848.3827 6755278.9591 -201.8794 -7150.5171 585.0901 -0.19282
95.3  553133.3279 6755337.4302 -201.8986 -7150.5793 584.332 -0.1928
95.4  552418.2669 6755395.8255 -201.9179 -7150.6414 583.5739 -0.19278
95.5  551703.1996 6755454.145 -201.9372 -7150.7033 582.8158 -0.19276
95.6  550988.1262 6755512.3887 -201.9565 -7150.7653 582.0577 -0.19274
95.7  550273.0466 6755570.5566 -201.9757 -7150.8271 581.2996 -0.19272
END Ephemeris